$$SOE
2460147.500000000, A.D. 2023-Jul-22 00:00:00.0000, -1.153504906078648E+08, -2.732638457280891E+08, 6.808841003094821E+07,
2460154.500000000, A.D. 2023-Jul-29 00:00:00.0000, -1.041012744284083E+08, -2.748313335544932E+08, 7.270835625901797E+07,
2460161.500000000, A.D. 2023-Aug-05 00:00:00.0000, -9.267004922964309E+07, -2.759180531454098E+08, 7.720109093773764E+07,
2460168.500000000, A.D. 2023-Aug-12 00:00:00.0000, -8.107418988039251E+07, -2.765142840063654E+08, 8.155656583826576E+07,
2460175.500000000, A.D. 2023-Aug-19 00:00:00.0000, -6.933191317482121E+07, -2.766107782506152E+08, 8.576462201829873E+07,
2460182.500000000, A.D. 2023-Aug-26 00:00:00.0000, -5.746230210503928E+07, -2.761988141563005E+08, 8.981500261308180E+07,
2460189.500000000, A.D. 2023-Sep-02 00:00:00.0000, -4.548532840812923E+07, -2.752702545206014E+08, 9.369736812980770E+07,
2460196.500000000, A.D. 2023-Sep-09 00:00:00.0000, -3.342187281272589E+07, -2.738176100155187E+08, 9.740131449399506E+07,
2460203.500000000, A.D. 2023-Sep-16 00:00:00.0000, -2.129374221205963E+07, -2.718341077285904E+08, 1.009163940935913E+08,
2460210.500000000, A.D. 2023-Sep-23 00:00:00.0000, -9.123682669827014E+06, -2.693137646775837E+08, 1.042321400779115E+08,
2460217.500000000, A.D. 2023-Sep-30 00:00:00.0000, 3.064612154574860E+06, -2.662514651229492E+08, 1.073380943136904E+08,
2460224.500000000, A.D. 2023-Oct-07 00:00:00.0000, 1.524649563833850E+07, -2.626430421586676E+08, 1.102238394393214E+08,
2460231.500000000, A.D. 2023-Oct-14 00:00:00.0000, 2.739636783521513E+07, -2.584853667416785E+08, 1.128790349107351E+08,
2460238.500000000, A.D. 2023-Oct-21 00:00:00.0000, 3.948768433789734E+07, -2.537764423005524E+08, 1.152934571201651E+08,
2460245.500000000, A.D. 2023-Oct-28 00:00:00.0000, 5.149297399152648E+07, -2.485155022813322E+08, 1.174570441260573E+08,
2460252.500000000, A.D. 2023-Nov-04 00:00:00.0000, 6.338386532036385E+07, -2.427031108705515E+08, 1.193599452307176E+08,
2460259.500000000, A.D. 2023-Nov-11 00:00:00.0000, 7.513112300426321E+07, -2.363412667978378E+08, 1.209925754748476E+08,
2460266.500000000, A.D. 2023-Nov-18 00:00:00.0000, 8.670469581171873E+07, -2.294335093992197E+08, 1.223456750936500E+08,
2460273.500000000, A.D. 2023-Nov-25 00:00:00.0000, 9.807377725384621E+07, -2.219850258308939E+08, 1.234103739183533E+08,
2460280.500000000, A.D. 2023-Dec-02 00:00:00.0000, 1.092068801550342E+08, -2.140027581356546E+08, 1.241782606092927E+08,
2460287.500000000, A.D. 2023-Dec-09 00:00:00.0000, 1.200719263269837E+08, -2.054955086781480E+08, 1.246414564838708E+08,
2460294.500000000, A.D. 2023-Dec-16 00:00:00.0000, 1.306363526388626E+08, -1.964740421539399E+08, 1.247926935602856E+08,
2460301.500000000, A.D. 2023-Dec-23 00:00:00.0000, 1.408672346797300E+08, -1.869511814638083E+08, 1.246253963396785E+08,
2460308.500000000, A.D. 2023-Dec-30 00:00:00.0000, 1.507314273058944E+08, -1.769418941523844E+08, 1.241337668647099E+08,
2460315.500000000, A.D. 2024-Jan-06 00:00:00.0000, 1.601957206595571E+08, -1.664633693059225E+08, 1.233128721658080E+08,
2460322.500000000, A.D. 2024-Jan-13 00:00:00.0000, 1.692270148569465E+08, -1.555350840662851E+08, 1.221587326033009E+08,
2460329.500000000, A.D. 2024-Jan-20 00:00:00.0000, 1.777925141975617E+08, -1.441788538949879E+08, 1.206684100019406E+08,
2460336.500000000, A.D. 2024-Jan-27 00:00:00.0000, 1.858599380289330E+08, -1.324188630864467E+08, 1.188400943847420E+08,
2460343.500000000, A.D. 2024-Feb-03 00:00:00.0000, 1.933977464797269E+08, -1.202816736389847E+08, 1.166731876528963E+08,
2460350.500000000, A.D. 2024-Feb-10 00:00:00.0000, 2.003753794141360E+08, -1.077962100363882E+08, 1.141683823865799E+08,
2460357.500000000, A.D. 2024-Feb-17 00:00:00.0000, 2.067635062272141E+08, -9.499371740363036E+07, 1.113277338514114E+08,
2460364.500000000, A.D. 2024-Feb-24 00:00:00.0000, 2.125342833947018E+08, -8.190769082236560E+07, 1.081547232229310E+08,
2460371.500000000, A.D. 2024-Mar-02 00:00:00.0000, 2.176616160972650E+08, -6.857377409386469E+07, 1.046543100113283E+08,
2460378.500000000, A.D. 2024-Mar-09 00:00:00.0000, 2.221214198053302E+08, -5.502962684776966E+07, 1.008329716915780E+08,
2460385.500000000, A.D. 2024-Mar-16 00:00:00.0000, 2.258918774990401E+08, -4.131475932560737E+07, 9.669872864699963E+07,
2460392.500000000, A.D. 2024-Mar-23 00:00:00.0000, 2.289536873487368E+08, -2.747033404085342E+07, 9.226115285366844E+07,
2460399.500000000, A.D. 2024-Mar-30 00:00:00.0000, 2.312902933464262E+08, -1.353893553809809E+07, 8.753135913285816E+07,
2460406.500000000, A.D. 2024-Apr-06 00:00:00.0000, 2.328880938335872E+08, 4.356862433805130E+05, 8.252197764385898E+07,
2460413.500000000, A.D. 2024-Apr-13 00:00:00.0000, 2.337366263057796E+08, 1.440889677735738E+07, 7.724710673934767E+07,
2460420.500000000, A.D. 2024-Apr-20 00:00:00.0000, 2.338287227300320E+08, 2.833548065397821E+07, 7.172224635584483E+07,
2460427.500000000, A.D. 2024-Apr-27 00:00:00.0000, 2.331606296066263E+08, 4.216996283880930E+07, 6.596421241686507E+07,
2460434.500000000, A.D. 2024-May-04 00:00:00.0000, 2.317320893448900E+08, 5.586694131371990E+07, 5.999103308557843E+07,
2460441.500000000, A.D. 2024-May-11 00:00:00.0000, 2.295463805591537E+08, 6.938142502437368E+07, 5.382182825622921E+07,
2460448.500000000, A.D. 2024-May-18 00:00:00.0000, 2.266103157634267E+08, 8.266917089571355E+07, 4.747667421449509E+07,
2460455.500000000, A.D. 2024-May-25 00:00:00.0000, 2.229341960373116E+08, 9.568701357020031E+07, 4.097645588145430E+07,
2460462.500000000, A.D. 2024-Jun-01 00:00:00.0000, 2.185317234758106E+08, 1.083931815982459E+08, 3.434270942666770E+07,
2460469.500000000, A.D. 2024-Jun-08 00:00:00.0000, 2.134198735864465E+08, 1.207475941915721E+08, 2.759745825895292E+07,
2460476.500000000, A.D. 2024-Jun-15 00:00:00.0000, 2.076187310034921E+08, 1.327121337836521E+08, 2.076304554447653E+07,
2460483.500000000, A.D. 2024-Jun-22 00:00:00.0000, 2.011512913679265E+08, 1.442508910332694E+08, 1.386196658770093E+07,
2460490.500000000, A.D. 2024-Jun-29 00:00:00.0000, 1.940432318655604E+08, 1.553303768669370E+08, 6.916704199964248E+06,
2460497.500000000, A.D. 2024-Jul-06 00:00:00.0000, 1.863226583144498E+08, 1.659196965074612E+08, -5.043049523108453E+04,
2460504.500000000, A.D. 2024-Jul-13 00:00:00.0000, 1.780198363292243E+08, 1.759906867347284E+08, -7.017449174179345E+06,
2460511.500000000, A.D. 2024-Jul-20 00:00:00.0000, 1.691669102807577E+08, 1.855180169933065E+08, -1.396282682448945E+07,
2460518.500000000, A.D. 2024-Jul-27 00:00:00.0000, 1.597976150540088E+08, 1.944792538402870E+08, -2.086562983914776E+07,
2460525.500000000, A.D. 2024-Aug-03 00:00:00.0000, 1.499469862947137E+08, 2.028548896951744E+08, -2.770563035536834E+07,
2460532.500000000, A.D. 2024-Aug-10 00:00:00.0000, 1.396510743232475E+08, 2.106283379859979E+08, -3.446340590972132E+07,
2460539.500000000, A.D. 2024-Aug-17 00:00:00.0000, 1.289466662452258E+08, 2.177858974327790E+08, -4.112042390428263E+07,
2460546.500000000, A.D. 2024-Aug-24 00:00:00.0000, 1.178710201501496E+08, 2.243166886347237E+08, -4.765911078693269E+07,
2460553.500000000, A.D. 2024-Aug-31 00:00:00.0000, 1.064616147056029E+08, 2.302125664055832E+08, -5.406290622430259E+07,
2460560.500000000, A.D. 2024-Sep-07 00:00:00.0000, 9.475591701450704E+07, 2.354680116642549E+08, -6.031630286761244E+07,
2460567.500000000, A.D. 2024-Sep-14 00:00:00.0000, 8.279117065024912E+07, 2.400800075989871E+08, -6.640487247625225E+07,
2460574.500000000, A.D. 2024-Sep-21 00:00:00.0000, 7.060420303093880E+07, 2.440479041416652E+08, -7.231527921029112E+07,
2460581.500000000, A.D. 2024-Sep-28 00:00:00.0000, 5.823125221789348E+07, 2.473732709732828E+08, -7.803528146793926E+07,
2460588.500000000, A.D. 2024-Oct-05 00:00:00.0000, 4.570781687021961E+07, 2.500597423121837E+08, -8.355372387275243E+07,
2460595.500000000, A.D. 2024-Oct-12 00:00:00.0000, 3.306852863683648E+07, 2.521128593949461E+08, -8.886052044585544E+07,
2460602.500000000, A.D. 2024-Oct-19 00:00:00.0000, 2.034704449267287E+07, 2.535399129595057E+08, -9.394663011997125E+07,
2460609.500000000, A.D. 2024-Oct-26 00:00:00.0000, 7.575957949861708E+06, 2.543497871731551E+08, -9.880402591979744E+07,
2460616.500000000, A.D. 2024-Nov-02 00:00:00.0000, -5.213271848961276E+06, 2.545528067563557E+08, -1.034256590473089E+08,
2460623.500000000, A.D. 2024-Nov-09 00:00:00.0000, -1.799037445745252E+07, 2.541605888839014E+08, -1.078054190004565E+08,
2460630.500000000, A.D. 2024-Nov-16 00:00:00.0000, -3.072630733568929E+07, 2.531859011049224E+08, -1.119380907533216E+08,
2460637.500000000, A.D. 2024-Nov-23 00:00:00.0000, -4.339328142562823E+07, 2.516425261788489E+08, -1.158193099281792E+08,
2460644.500000000, A.D. 2024-Nov-30 00:00:00.0000, -5.596477441044930E+07, 2.495451344667822E+08, -1.194455167971445E+08,
2460651.500000000, A.D. 2024-Dec-07 00:00:00.0000, -6.841553273028824E+07, 2.469091647480380E+08, -1.228139098270160E+08,
2460658.500000000, A.D. 2024-Dec-14 00:00:00.0000, -8.072156447290595E+07, 2.437507149362377E+08, -1.259223992150734E+08,
2460665.500000000, A.D. 2024-Dec-21 00:00:00.0000, -9.286012679722209E+07, 2.400864415338755E+08, -1.287695608176712E+08,
2460672.500000000, A.D. 2024-Dec-28 00:00:00.0000, -1.048097071620722E+08, 2.359334647853703E+08, -1.313545913015687E+08,
2460679.500000000, A.D. 2025-Jan-04 00:00:00.0000, -1.165499969241131E+08, 2.313092817227725E+08, -1.336772648949941E+08,
2460686.500000000, A.D. 2025-Jan-11 00:00:00.0000, -1.280618601720614E+08, 2.262316885032550E+08, -1.357378917092825E+08,
2460693.500000000, A.D. 2025-Jan-18 00:00:00.0000, -1.393272996455779E+08, 2.207187107843647E+08, -1.375372778196253E+08,
2460700.500000000, A.D. 2025-Jan-25 00:00:00.0000, -1.503294203282049E+08, 2.147885412745689E+08, -1.390766873034973E+08,
2460707.500000000, A.D. 2025-Feb-01 00:00:00.0000, -1.610523912604092E+08, 2.084594840090183E+08, -1.403578063482516E+08,
2460714.500000000, A.D. 2025-Feb-08 00:00:00.0000, -1.714814061553382E+08, 2.017499049315193E+08, -1.413827094835260E+08,
$$EOE